#cP2024  3  1 12  0  0.00000000     577 d+D   IGS20 EXT AIUB
## 2303 475200.00000000   300.00000000 60370 0.5000000000000
+   79   G01G02G03G04G05G06G07G08G09G10G11G12G13G14G15G16G17
+        G18G19G20G21G22G23G24G25G26G27G28G29G30G31G32R01R02
+        R03R04R05R07R08R09R11R12R13R14R15R16R17R18R19R20R21
+        R22R24R26E02E03E04E05E07E08E09E10E11E12E13E14E15E18
+        E19E21E24E25E26E27E30E31E33E34E36  0  0  0  0  0  0
++         7  7  5  5  7  6  7  6  6  6  7  7  7  6  7  7  7
++         7  7  7  7  7  6  7  6  6  6  6  7  6  7  6  8  6
++         8  7  7  7  7  6  6  6  8  6  6  7  7  7  8  9  8
++         7  7  8  6  7  7  7  7  7  6  7  6  6  7  6  6  6
++         7  6  6  6  7  6  5  6  7  6  6  0  0  0  0  0  0
%c M  cc GPS ccc cccc cccc cccc cccc ccccc ccccc ccccc ccccc
%c cc cc ccc ccc cccc cccc cccc cccc ccccc ccccc ccccc ccccc
%f  1.2500000  1.025000000  0.00000000000  0.000000000000000
%f  0.0000000  0.000000000  0.00000000000  0.000000000000000
%i    0    0    0    0      0      0      0      0         0
%i    0    0    0    0      0      0      0      0         0
/* Center for Orbit Determination in Europe (CODE)          
/* Ultra-rapid GRE orbits starting year-day 24061 12 hour   
/* Observed/predicted: 24/24 hours (data used up to 062L)   
/* PCV:IGS20      OL/AL:FES2014b NONE     YN ORB:CoN CLK:BRD
*  2024  3  1 14  0  0.00000000
PG01 -12863.912268 -12144.057334 -20266.805932    171.810098
PG02  -3583.246761 -14407.701901 -21538.249409   -477.286437
PG03 -11151.322747 -23149.218809  -7115.217797    225.639648
PG04  -1056.621341 -21869.043979  14954.181361    304.396770
PG05   1100.140813  20006.511238  17214.871386   -163.755259
PG06 -25457.412294   5932.148276   5098.328947    386.237116
PG07 -22477.960766  -6978.840683  13250.362688    -74.179589
PG08   4309.040317 -24949.459540  -7351.032057     22.478313
PG09 -11572.145419 -10997.505668  21138.232130    109.655340
PG10  18325.260353   3690.248004 -18789.401366      1.002700
PG11 -18066.229224  11865.235220  15429.345257   -592.901269
PG12   8858.287599  23933.795068  -7767.779504   -483.018230
PG13 -13435.566878  22763.235914   -681.402974    630.255010
PG14 -19601.890565  -7307.934873 -16451.425918    339.277253
PG15  -1031.410076  25475.962248  -7537.830869    133.091297
PG16   6058.768596 -16277.850347  19625.103009   -351.123774
PG17 -16821.223104   2874.904861 -19972.434106    715.248603
PG18  23062.352599   5947.156396  11961.115650   -566.653234
PG19 -18481.099374  11254.245243 -15338.601251    447.890221
PG20  -9720.823922  12025.141890  21662.775317    385.560216
PG21   1775.557540 -15323.363019 -21014.928418    133.029305
PG22 -16417.703607    384.940780 -20386.537428     22.855038
PG23  19983.474007  14479.007225 -10048.032219    167.402722
PG24   1692.679429  15937.595903 -21572.961483   -439.890548
PG25  16998.326143  20523.441650   1423.598678    490.108459
PG26  14378.498250  -7257.891834  21004.977750    184.558325
PG27  12751.102089 -22615.532959   4082.570479     -8.389211
PG28  25944.828246  -5279.761060   2048.028702   -148.875590
PG29   9093.176585  13393.911037  20983.889636   -605.851558
PG30 -26529.043042    615.682962   3150.587976   -425.699403
PG31  22141.089572  -9903.630495  11067.889927   -227.907207
PG32  17134.231883  -6642.324425 -18896.321143   -614.126655
PR01  10940.394955   1542.988502 -22983.792954     78.527730
PR02   8681.973626 -16468.461756 -17353.563493    -22.514721
PR03   1448.233942 -25375.045135  -1707.142568     95.556881
PR04  -6010.218472 -20146.602208  14469.654778    225.669234
PR05 -10461.093889  -4142.637278  22907.087445    127.723038
PR07  -1135.316724  25493.559290    967.650274     76.950149
PR08   6265.622445  20010.790577 -14484.346708    -74.569570
PR09 -13283.057522   4594.330452 -21291.170359    172.888960
PR11  17182.236677  15834.884235 -10208.012981     32.669483
PR12  22326.624165   8345.472880   9125.102127     37.298485
PR13  15049.706853  -2548.002278  20418.262533    -44.875383
PR14  -3329.404239 -13910.227253  21130.310583     26.125857
PR15 -17978.892706 -15815.894671   8810.368067     81.743948
PR16 -22390.291645  -8472.479932  -8851.192757     23.655754
PR17   8816.690047 -14566.468425 -18997.787670     65.390043
PR18  -7561.767520  -7789.288037 -23070.666788    129.981420
PR19 -19356.619623   1163.672250 -16573.364319   -267.760911
PR20 -22140.921480  12287.048824   3293.456347   -109.087852
PR21  -8730.075163  14381.254860  19166.636757    -81.092124
PR22   8503.561263   7817.307384  22767.754668    110.626198
PR24  21356.584634 -13425.101604  -3796.614886    -46.029180
PR26   6028.190845  20596.965724 -13744.371047   -195.691642
PE02 -11873.743839  12189.791099 -24233.088523    107.652159
PE03 -17318.664668  22063.284707   9442.167063    -97.300898
PE04   5373.782772 -27561.292524   9374.524822   -339.435437
PE05 -18952.580397   3775.160945  22427.577900   4724.963683
PE07   9239.724473  17196.681475 -22239.318489   -106.532010
PE08  -5962.400780  27638.701872  -8739.709014   -232.037698
PE09  -9044.161294 -17259.003717  22290.655496   -354.758542
PE10  -8382.547727 -14807.069389 -24224.286819   -605.935715
PE11 -19313.527891 -10914.830730 -19614.133618   3210.600314
PE12   2573.626749 -16218.350375 -24625.177977   -929.056428
PE13  18679.252915  11157.278982  20067.913359    -20.358666
PE14  18588.498171 -22695.818114   7583.942942 999999.999999
PE15  -3258.067845  16161.721109  24593.344734    -88.733034
PE18 -19324.413012  10897.759567 -14266.967320 999999.999999
PE19  18105.205259 -20459.220950 -11378.869380   -515.596789
PE21  21274.749394   6935.694633  19370.694977   -581.681461
PE24 -18405.880224 -23012.820653  -2671.259168   -626.995861
PE25 -21353.483082  -7313.342769 -19148.545327      1.562779
PE26  29409.600488   -652.077921   3261.074187    383.838449
PE27  18638.482841  22808.307284   2993.438923   -287.746578
PE30   4757.444172  25027.932595 -15103.725550    -50.230060
PE31  -5043.833781 -25039.618115  14950.466141    -17.204961
PE33  23351.058900 -11368.287358 -14192.974970      8.381915
PE34 -22930.203377  11663.342184  14640.439973    -97.556066
PE36 -29352.205875    291.597424  -3878.585667   -193.163172
EOF
